CCSDS_OMM_VERS = 2.0
CREATION_DATE  = 
ORIGINATOR     = 

OBJECT_NAME    = UNKNOWN
OBJECT_ID      = 
CENTER_NAME    = EARTH
REF_FRAME      = TEME
TIME_SYSTEM    = UTC
MEAN_ELEMENT_THEORY = SGP/SGP4

EPOCH          = 2025-12-28T16:40:11.405280
MEAN_MOTION    = 14.41122463
ECCENTRICITY   = .0048084
INCLINATION    = 98.4233
RA_OF_ASC_NODE = 333.4978
ARG_OF_PERICENTER = 113.7230
MEAN_ANOMALY   = 69.0848

EPHEMERIS_TYPE = 0
CLASSIFICATION_TYPE = U
NORAD_CAT_ID   = 85004
ELEMENT_SET_NO = 999
REV_AT_EPOCH   = 63319
BSTAR          = .42944E-3
MEAN_MOTION_DOT = .136E-4
MEAN_MOTION_DDOT = 0

CCSDS_OMM_VERS = 2.0
CREATION_DATE  = 
ORIGINATOR     = 

OBJECT_NAME    = UNKNOWN
OBJECT_ID      = 
CENTER_NAME    = EARTH
REF_FRAME      = TEME
TIME_SYSTEM    = UTC
MEAN_ELEMENT_THEORY = SGP/SGP4

EPOCH          = 2025-12-27T02:38:48.115968
MEAN_MOTION    = 13.75082465
ECCENTRICITY   = .0025171
INCLINATION    = 99.2462
RA_OF_ASC_NODE = 222.5797
ARG_OF_PERICENTER = 217.8386
MEAN_ANOMALY   = 293.7700

EPHEMERIS_TYPE = 0
CLASSIFICATION_TYPE = U
NORAD_CAT_ID   = 85010
ELEMENT_SET_NO = 999
REV_AT_EPOCH   = 60589
BSTAR          = .12533E-2
MEAN_MOTION_DOT = .1158E-4
MEAN_MOTION_DDOT = 0

CCSDS_OMM_VERS = 2.0
CREATION_DATE  = 
ORIGINATOR     = 

OBJECT_NAME    = UNKNOWN
OBJECT_ID      = 
CENTER_NAME    = EARTH
REF_FRAME      = TEME
TIME_SYSTEM    = UTC
MEAN_ELEMENT_THEORY = SGP/SGP4

EPOCH          = 2025-12-27T18:06:58.964832
MEAN_MOTION    = 14.62307629
ECCENTRICITY   = .0016703
INCLINATION    = 74.0489
RA_OF_ASC_NODE = 9.4705
ARG_OF_PERICENTER = 272.8549
MEAN_ANOMALY   = 87.0706

EPHEMERIS_TYPE = 0
CLASSIFICATION_TYPE = U
NORAD_CAT_ID   = 85015
ELEMENT_SET_NO = 999
REV_AT_EPOCH   = 64480
BSTAR          = .14884E-3
MEAN_MOTION_DOT = .722E-5
MEAN_MOTION_DDOT = 0

CCSDS_OMM_VERS = 2.0
CREATION_DATE  = 
ORIGINATOR     = 

OBJECT_NAME    = UNKNOWN
OBJECT_ID      = 
CENTER_NAME    = EARTH
REF_FRAME      = TEME
TIME_SYSTEM    = UTC
MEAN_ELEMENT_THEORY = SGP/SGP4

EPOCH          = 2025-12-28T21:42:21.171744
MEAN_MOTION    = 14.75246454
ECCENTRICITY   = .0001805
INCLINATION    = 99.8508
RA_OF_ASC_NODE = 21.8703
ARG_OF_PERICENTER = 269.4367
MEAN_ANOMALY   = 210.1826

EPHEMERIS_TYPE = 0
CLASSIFICATION_TYPE = U
NORAD_CAT_ID   = 85023
ELEMENT_SET_NO = 999
REV_AT_EPOCH   = 63121
BSTAR          = .65595E-2
MEAN_MOTION_DOT = .44607E-3
MEAN_MOTION_DDOT = 0

CCSDS_OMM_VERS = 2.0
CREATION_DATE  = 
ORIGINATOR     = 

OBJECT_NAME    = UNKNOWN
OBJECT_ID      = 
CENTER_NAME    = EARTH
REF_FRAME      = TEME
TIME_SYSTEM    = UTC
MEAN_ELEMENT_THEORY = SGP/SGP4

EPOCH          = 2025-12-27T04:58:57.819360
MEAN_MOTION    = 13.74252748
ECCENTRICITY   = .0176268
INCLINATION    = 66.0425
RA_OF_ASC_NODE = 66.0806
ARG_OF_PERICENTER = 183.0932
MEAN_ANOMALY   = 176.9059

EPHEMERIS_TYPE = 0
CLASSIFICATION_TYPE = U
NORAD_CAT_ID   = 85027
ELEMENT_SET_NO = 999
REV_AT_EPOCH   = 60660
BSTAR          = .21792E-3
MEAN_MOTION_DOT = .151E-5
MEAN_MOTION_DDOT = 0

CCSDS_OMM_VERS = 2.0
CREATION_DATE  = 
ORIGINATOR     = 

OBJECT_NAME    = UNKNOWN
OBJECT_ID      = 
CENTER_NAME    = EARTH
REF_FRAME      = TEME
TIME_SYSTEM    = UTC
MEAN_ELEMENT_THEORY = SGP/SGP4

EPOCH          = 2025-12-28T04:36:25.869312
MEAN_MOTION    = 13.44645901
ECCENTRICITY   = .0163502
INCLINATION    = 102.1884
RA_OF_ASC_NODE = 330.8705
ARG_OF_PERICENTER = 340.6166
MEAN_ANOMALY   = 18.8785

EPHEMERIS_TYPE = 0
CLASSIFICATION_TYPE = U
NORAD_CAT_ID   = 85047
ELEMENT_SET_NO = 999
REV_AT_EPOCH   = 57873
BSTAR          = .28855E-1
MEAN_MOTION_DOT = .18271E-3
MEAN_MOTION_DDOT = 0

CCSDS_OMM_VERS = 2.0
CREATION_DATE  = 
ORIGINATOR     = 

OBJECT_NAME    = UNKNOWN
OBJECT_ID      = 
CENTER_NAME    = EARTH
REF_FRAME      = TEME
TIME_SYSTEM    = UTC
MEAN_ELEMENT_THEORY = SGP/SGP4

EPOCH          = 2025-12-28T19:24:56.156256
MEAN_MOTION    = 12.77103698
ECCENTRICITY   = .0255718
INCLINATION    = 102.3957
RA_OF_ASC_NODE = 348.0814
ARG_OF_PERICENTER = 160.8798
MEAN_ANOMALY   = 322.5039

EPHEMERIS_TYPE = 0
CLASSIFICATION_TYPE = U
NORAD_CAT_ID   = 85061
ELEMENT_SET_NO = 999
REV_AT_EPOCH   = 55783
BSTAR          = .14491E-1
MEAN_MOTION_DOT = .358E-4
MEAN_MOTION_DDOT = 0

CCSDS_OMM_VERS = 2.0
CREATION_DATE  = 
ORIGINATOR     = 

OBJECT_NAME    = UNKNOWN
OBJECT_ID      = 
CENTER_NAME    = EARTH
REF_FRAME      = TEME
TIME_SYSTEM    = UTC
MEAN_ELEMENT_THEORY = SGP/SGP4

EPOCH          = 2025-12-28T07:11:28.634208
MEAN_MOTION    = 14.40722397
ECCENTRICITY   = .0011568
INCLINATION    = 74.0437
RA_OF_ASC_NODE = 194.0195
ARG_OF_PERICENTER = 56.0514
MEAN_ANOMALY   = 126.3561

EPHEMERIS_TYPE = 0
CLASSIFICATION_TYPE = U
NORAD_CAT_ID   = 85100
ELEMENT_SET_NO = 999
REV_AT_EPOCH   = 63558
BSTAR          = .15035E-3
MEAN_MOTION_DOT = .454E-5
MEAN_MOTION_DDOT = 0

CCSDS_OMM_VERS = 2.0
CREATION_DATE  = 
ORIGINATOR     = 

OBJECT_NAME    = UNKNOWN
OBJECT_ID      = 
CENTER_NAME    = EARTH
REF_FRAME      = TEME
TIME_SYSTEM    = UTC
MEAN_ELEMENT_THEORY = SGP/SGP4

EPOCH          = 2025-12-29T05:43:32.015136
MEAN_MOTION    = 13.72922670
ECCENTRICITY   = .0009021
INCLINATION    = 100.0555
RA_OF_ASC_NODE = 104.9106
ARG_OF_PERICENTER = 330.9655
MEAN_ANOMALY   = 58.2361

EPHEMERIS_TYPE = 0
CLASSIFICATION_TYPE = U
NORAD_CAT_ID   = 85106
ELEMENT_SET_NO = 999
REV_AT_EPOCH   = 60533
BSTAR          = .95141E-3
MEAN_MOTION_DOT = .829E-5
MEAN_MOTION_DDOT = 0

CCSDS_OMM_VERS = 2.0
CREATION_DATE  = 
ORIGINATOR     = 

OBJECT_NAME    = UNKNOWN
OBJECT_ID      = 
CENTER_NAME    = EARTH
REF_FRAME      = TEME
TIME_SYSTEM    = UTC
MEAN_ELEMENT_THEORY = SGP/SGP4

EPOCH          = 2025-12-28T20:58:20.305632
MEAN_MOTION    = 14.79258736
ECCENTRICITY   = .0009367
INCLINATION    = 98.4039
RA_OF_ASC_NODE = 227.6253
ARG_OF_PERICENTER = 74.7227
MEAN_ANOMALY   = 285.5018

EPHEMERIS_TYPE = 0
CLASSIFICATION_TYPE = U
NORAD_CAT_ID   = 85151
ELEMENT_SET_NO = 999
REV_AT_EPOCH   = 48191
BSTAR          = .46538E-2
MEAN_MOTION_DOT = .34726E-3
MEAN_MOTION_DDOT = 0

CCSDS_OMM_VERS = 2.0
CREATION_DATE  = 
ORIGINATOR     = 

OBJECT_NAME    = UNKNOWN
OBJECT_ID      = 
CENTER_NAME    = EARTH
REF_FRAME      = TEME
TIME_SYSTEM    = UTC
MEAN_ELEMENT_THEORY = SGP/SGP4

EPOCH          = 2025-12-29T05:11:52.279584
MEAN_MOTION    = 13.71565643
ECCENTRICITY   = .0217347
INCLINATION    = 99.8560
RA_OF_ASC_NODE = 144.6549
ARG_OF_PERICENTER = 271.8105
MEAN_ANOMALY   = 212.5493

EPHEMERIS_TYPE = 0
CLASSIFICATION_TYPE = U
NORAD_CAT_ID   = 85210
ELEMENT_SET_NO = 999
REV_AT_EPOCH   = 60441
BSTAR          = .12076E-2
MEAN_MOTION_DOT = .1239E-4
MEAN_MOTION_DDOT = 0

CCSDS_OMM_VERS = 2.0
CREATION_DATE  = 
ORIGINATOR     = 

OBJECT_NAME    = UNKNOWN
OBJECT_ID      = 
CENTER_NAME    = EARTH
REF_FRAME      = TEME
TIME_SYSTEM    = UTC
MEAN_ELEMENT_THEORY = SGP/SGP4

EPOCH          = 2025-12-29T05:22:18.481728
MEAN_MOTION    = 14.37283191
ECCENTRICITY   = .0208728
INCLINATION    = 98.0300
RA_OF_ASC_NODE = 96.5439
ARG_OF_PERICENTER = 78.7527
MEAN_ANOMALY   = 283.7040

EPHEMERIS_TYPE = 0
CLASSIFICATION_TYPE = U
NORAD_CAT_ID   = 85217
ELEMENT_SET_NO = 999
REV_AT_EPOCH   = 63022
BSTAR          = .81105E-3
MEAN_MOTION_DOT = .3065E-4
MEAN_MOTION_DDOT = 0

