UNKNOWN                 
1 85004U          25362.69457645  .00001360  00000+0  42944-3 0  9996
2 85004  98.4233 333.4978 0048084 113.7230  69.0848 14.41122463633191
UNKNOWN                 
1 85010U          25361.11027912  .00001158  00000+0  12533-2 0  9994
2 85010  99.2462 222.5797 0025171 217.8386 293.7700 13.75082465605890
UNKNOWN                 
1 85015U          25361.75484913  .00000722  00000+0  14884-3 0  9995
2 85015  74.0489   9.4705 0016703 272.8549  87.0706 14.62307629644802
UNKNOWN                 
1 85023U          25362.90441171  .00044607  00000+0  65595-2 0  9995
2 85023  99.8508  21.8703 0001805 269.4367 210.1826 14.75246454631216
UNKNOWN                 
1 85027U          25361.20761365  .00000151  00000+0  21792-3 0  9999
2 85027  66.0425  66.0806 0176268 183.0932 176.9059 13.74252748606607
UNKNOWN                 
1 85047U          25362.19196608  .00018271  00000+0  28855-1 0  9999
2 85047 102.1884 330.8705 0163502 340.6166  18.8785 13.44645901578733
UNKNOWN                 
1 85061U          25362.80898329  .00003580  00000+0  14491-1 0  9990
2 85061 102.3957 348.0814 0255718 160.8798 322.5039 12.77103698557830
UNKNOWN                 
1 85100U          25362.29963697  .00000454  00000+0  15035-3 0  9992
2 85100  74.0437 194.0195 0011568  56.0514 126.3561 14.40722397635582
UNKNOWN                 
1 85106U          25363.23856499  .00000829  00000+0  95141-3 0  9996
2 85106 100.0555 104.9106 0009021 330.9655  58.2361 13.72922670605333
UNKNOWN                 
1 85151U          25362.87384613  .00034726  00000+0  46538-2 0  9997
2 85151  98.4039 227.6253 0009367  74.7227 285.5018 14.79258736481910
UNKNOWN                 
1 85210U          25363.21657731  .00001239  00000+0  12076-2 0  9999
2 85210  99.8560 144.6549 0217347 271.8105 212.5493 13.71565643604418
UNKNOWN                 
1 85217U          25363.22382502  .00003065  00000+0  81105-3 0  9997
2 85217  98.0300  96.5439 0208728  78.7527 283.7040 14.37283191630220
